[{"OBJECT_NAME":"CUBESX-HSE 3 (RS42S)","OBJECT_ID":"2023-091N","EPOCH":"2026-03-09T22:57:25.321248","MEAN_MOTION":15.286147,"ECCENTRICITY":0.00127191,"INCLINATION":97.5203,"RA_OF_ASC_NODE":133.4295,"ARG_OF_PERICENTER":86.5376,"MEAN_ANOMALY":273.7318,"EPHEMERIS_TYPE":0,"CLASSIFICATION_TYPE":"U","NORAD_CAT_ID":57178,"ELEMENT_SET_NO":999,"REV_AT_EPOCH":14925,"BSTAR":0.00059055694,"MEAN_MOTION_DOT":0.00016417,"MEAN_MOTION_DDOT":0},{"OBJECT_NAME":"STARLINK-31293","OBJECT_ID":"2024-027X","EPOCH":"2026-03-09T22:01:04.989504","MEAN_MOTION":15.30219237,"ECCENTRICITY":9.693e-5,"INCLINATION":53.1622,"RA_OF_ASC_NODE":308.5279,"ARG_OF_PERICENTER":86.4007,"MEAN_ANOMALY":273.7105,"EPHEMERIS_TYPE":0,"CLASSIFICATION_TYPE":"U","NORAD_CAT_ID":58952,"ELEMENT_SET_NO":999,"REV_AT_EPOCH":11736,"BSTAR":-0.00023460942,"MEAN_MOTION_DOT":-7.305e-5,"MEAN_MOTION_DDOT":0}]
